HIMAWARI-9
1 41836U 16064A   26193.80474082 -.00000276  00000+0  00000+0 0  9997
2 41836   0.0065 112.0078 0002252  66.6987 182.4418  1.00271255 35466
